GAOFEN 12-2             
1 48079U 21026A   22229.81031785  .00000236  00000+0  37824-4 0  9997
2 48079  97.8966 219.4965 0001342  83.2033 276.9339 14.80249634 74708
PLEIADES NEO 3          
1 48268U 21034A   22229.77782088  .00000382  00000+0  55106-4 0  9995
2 48268  97.8940 303.6278 0001461  88.9074 271.2311 14.81676966 70439
NUSAT-19 (ROSALIND)     
1 48905U 21059AC  22229.72308005  .00004983  00000+0  23505-3 0  9996
2 48905  97.5161 359.1745 0009113 215.0039 257.1524 15.19898990 63379
NUSAT-22 (SOFYA)        
1 48919U 21059AS  22229.12364647 -.00012650  00000+0 -40239-3 0  9994
2 48919  97.3627   0.9163 0014191 174.2942 300.5423 15.32349069 63852
NUSAT-21 (ELISA)        
1 48920U 21059AT  22229.46937928  .00005892  00000+0  16606-3 0  9990
2 48920  97.3597   0.7539 0012990 182.3756 248.2639 15.36735676 63914
NUSAT-20 (GRACE)        
1 48921U 21059AU  22229.67068162  .00008691  00000+0  26332-3 0  9996
2 48921  97.3704   1.4286 0015265 203.3245 281.6972 15.34280728 63931
PLEIADES NEO 4          
1 49070U 21073E   22229.81157890  .00000181  00000+0  29568-4 0  9992
2 49070  97.8928 303.6550 0001465  77.2695 282.8696 14.81674981 54154
LANDSAT 9               
1 49260U 21088A   22229.50612520  .00000237  00000+0  62734-4 0  9995
2 49260  98.2240 298.9693 0001620  95.4351 264.7032 14.57106873 47164
CSG-2                   
1 51444U 22008A   22229.72672215  .00000186  00000+0  29912-4 0  9990
2 51444  97.8885  52.5067 0001442  82.4978 277.6395 14.82159858 29291
INS-2TD                 
1 51658U 22013C   22228.84879773  .00005125  00000+0  27704-3 0  9997
2 51658  97.5561 236.6221 0010155 356.2057   3.9096 15.15091686 27819
