[{"OBJECT_NAME":"GAOFEN 12-2","OBJECT_ID":"2021-026A","EPOCH":"2022-08-17T19:26:51.462240","MEAN_MOTION":14.80249634,"ECCENTRICITY":0.0001342,"INCLINATION":97.8966,"RA_OF_ASC_NODE":219.4965,"ARG_OF_PERICENTER":83.2033,"MEAN_ANOMALY":276.9339,"EPHEMERIS_TYPE":0,"CLASSIFICATION_TYPE":"U","NORAD_CAT_ID":48079,"ELEMENT_SET_NO":999,"REV_AT_EPOCH":7470,"BSTAR":3.7824e-5,"MEAN_MOTION_DOT":2.36e-6,"MEAN_MOTION_DDOT":0},{"OBJECT_NAME":"PLEIADES NEO 3","OBJECT_ID":"2021-034A","EPOCH":"2022-08-17T18:40:03.724032","MEAN_MOTION":14.81676966,"ECCENTRICITY":0.0001461,"INCLINATION":97.894,"RA_OF_ASC_NODE":303.6278,"ARG_OF_PERICENTER":88.9074,"MEAN_ANOMALY":271.2311,"EPHEMERIS_TYPE":0,"CLASSIFICATION_TYPE":"U","NORAD_CAT_ID":48268,"ELEMENT_SET_NO":999,"REV_AT_EPOCH":7043,"BSTAR":5.5106e-5,"MEAN_MOTION_DOT":3.82e-6,"MEAN_MOTION_DDOT":0},{"OBJECT_NAME":"NUSAT-19 (ROSALIND)","OBJECT_ID":"2021-059AC","EPOCH":"2022-08-17T17:21:14.116320","MEAN_MOTION":15.1989899,"ECCENTRICITY":0.0009113,"INCLINATION":97.5161,"RA_OF_ASC_NODE":359.1745,"ARG_OF_PERICENTER":215.0039,"MEAN_ANOMALY":257.1524,"EPHEMERIS_TYPE":0,"CLASSIFICATION_TYPE":"U","NORAD_CAT_ID":48905,"ELEMENT_SET_NO":999,"REV_AT_EPOCH":6337,"BSTAR":0.00023505,"MEAN_MOTION_DOT":4.983e-5,"MEAN_MOTION_DDOT":0},{"OBJECT_NAME":"NUSAT-22 (SOFYA)","OBJECT_ID":"2021-059AS","EPOCH":"2022-08-17T02:58:03.055008","MEAN_MOTION":15.32349069,"ECCENTRICITY":0.0014191,"INCLINATION":97.3627,"RA_OF_ASC_NODE":0.9163,"ARG_OF_PERICENTER":174.2942,"MEAN_ANOMALY":300.5423,"EPHEMERIS_TYPE":0,"CLASSIFICATION_TYPE":"U","NORAD_CAT_ID":48919,"ELEMENT_SET_NO":999,"REV_AT_EPOCH":6385,"BSTAR":-0.00040239,"MEAN_MOTION_DOT":-0.0001265,"MEAN_MOTION_DDOT":0},{"OBJECT_NAME":"NUSAT-21 (ELISA)","OBJECT_ID":"2021-059AT","EPOCH":"2022-08-17T11:15:54.369792","MEAN_MOTION":15.36735676,"ECCENTRICITY":0.001299,"INCLINATION":97.3597,"RA_OF_ASC_NODE":0.7539,"ARG_OF_PERICENTER":182.3756,"MEAN_ANOMALY":248.2639,"EPHEMERIS_TYPE":0,"CLASSIFICATION_TYPE":"U","NORAD_CAT_ID":48920,"ELEMENT_SET_NO":999,"REV_AT_EPOCH":6391,"BSTAR":0.00016606,"MEAN_MOTION_DOT":5.892e-5,"MEAN_MOTION_DDOT":0},{"OBJECT_NAME":"NUSAT-20 (GRACE)","OBJECT_ID":"2021-059AU","EPOCH":"2022-08-17T16:05:46.891968","MEAN_MOTION":15.34280728,"ECCENTRICITY":0.0015265,"INCLINATION":97.3704,"RA_OF_ASC_NODE":1.4286,"ARG_OF_PERICENTER":203.3245,"MEAN_ANOMALY":281.6972,"EPHEMERIS_TYPE":0,"CLASSIFICATION_TYPE":"U","NORAD_CAT_ID":48921,"ELEMENT_SET_NO":999,"REV_AT_EPOCH":6393,"BSTAR":0.00026332,"MEAN_MOTION_DOT":8.691e-5,"MEAN_MOTION_DDOT":0},{"OBJECT_NAME":"PLEIADES NEO 4","OBJECT_ID":"2021-073E","EPOCH":"2022-08-17T19:28:40.416960","MEAN_MOTION":14.81674981,"ECCENTRICITY":0.0001465,"INCLINATION":97.8928,"RA_OF_ASC_NODE":303.655,"ARG_OF_PERICENTER":77.2695,"MEAN_ANOMALY":282.8696,"EPHEMERIS_TYPE":0,"CLASSIFICATION_TYPE":"U","NORAD_CAT_ID":49070,"ELEMENT_SET_NO":999,"REV_AT_EPOCH":5415,"BSTAR":2.9568e-5,"MEAN_MOTION_DOT":1.81e-6,"MEAN_MOTION_DDOT":0},{"OBJECT_NAME":"LANDSAT 9","OBJECT_ID":"2021-088A","EPOCH":"2022-08-17T12:08:49.217280","MEAN_MOTION":14.57106873,"ECCENTRICITY":0.000162,"INCLINATION":98.224,"RA_OF_ASC_NODE":298.9693,"ARG_OF_PERICENTER":95.4351,"MEAN_ANOMALY":264.7032,"EPHEMERIS_TYPE":0,"CLASSIFICATION_TYPE":"U","NORAD_CAT_ID":49260,"ELEMENT_SET_NO":999,"REV_AT_EPOCH":4716,"BSTAR":6.2734e-5,"MEAN_MOTION_DOT":2.37e-6,"MEAN_MOTION_DDOT":0},{"OBJECT_NAME":"CSG-2","OBJECT_ID":"2022-008A","EPOCH":"2022-08-17T17:26:28.793760","MEAN_MOTION":14.82159858,"ECCENTRICITY":0.0001442,"INCLINATION":97.8885,"RA_OF_ASC_NODE":52.5067,"ARG_OF_PERICENTER":82.4978,"MEAN_ANOMALY":277.6395,"EPHEMERIS_TYPE":0,"CLASSIFICATION_TYPE":"U","NORAD_CAT_ID":51444,"ELEMENT_SET_NO":999,"REV_AT_EPOCH":2929,"BSTAR":2.9912e-5,"MEAN_MOTION_DOT":1.86e-6,"MEAN_MOTION_DDOT":0},{"OBJECT_NAME":"INS-2TD","OBJECT_ID":"2022-013C","EPOCH":"2022-08-16T20:22:16.123872","MEAN_MOTION":15.15091686,"ECCENTRICITY":0.0010155,"INCLINATION":97.5561,"RA_OF_ASC_NODE":236.6221,"ARG_OF_PERICENTER":356.2057,"MEAN_ANOMALY":3.9096,"EPHEMERIS_TYPE":0,"CLASSIFICATION_TYPE":"U","NORAD_CAT_ID":51658,"ELEMENT_SET_NO":999,"REV_AT_EPOCH":2781,"BSTAR":0.00027704,"MEAN_MOTION_DOT":5.125e-5,"MEAN_MOTION_DDOT":0}]